1 98580C 25135BL  25174.99035276 -.00080323  00000+0 -80437-2 0    00
2 98580  97.7470 289.3930 0004228  87.9095 217.7754 14.91521210    14